id,location,location_name,postcode,address_line,hb,hscp,hscpqf,ca,caqf,int_zone,int_zone_qf,data_zone,data_zone_qf,based_on_postcode,hospital,road,area,lng,lat
1,a101h,arran_war_memorial_hospital,ka27_8lf,"lamlash,_isle_of_arran",S08000015,S37000020,NA,S12000021,NA,S02002097,NA,S01011176,NA,NA,NA,lamlash,isle_of_arran,203533,632121
2,a103h,ayrshire_central_hospital,ka12_8ss,"kilwinning_road,_irvine",S08000015,S37000020,NA,S12000021,NA,S02002105,NA,S01011213,NA,NA,NA,kilwinning_road,irvine,231514,641144
3,a105h,kirklandside_hospital,ka1_5lh,"kirklandside,_kilmarnock,_ayrshire",S08000015,S37000008,NA,S12000008,NA,S02001492,NA,S01007961,NA,NA,kirklandside,kilmarnock,ayrshire,244240.02,636263.4
4,a110h,lady_margaret_hospital,ka28_0hf,"college_st,_millport,_isle_of_cumbrae",S08000015,S37000020,NA,S12000021,NA,S02002128,NA,S01011328,NA,NA,college_st,millport,isle_of_cumbrae,216713,655863
5,a111h,university_hospital_crosshouse,ka2_0be,"kilmarnock_road,_kilmarnock,_ayrshire",S08000015,S37000008,NA,S12000008,NA,S02001504,NA,S01008027,NA,NA,kilmarnock_road,kilmarnock,ayrshire,240159.8,638520.4
6,a112h,brooksby_day_hospital,ka30_8ne,"18_greenock_road,_largs",S08000015,S37000020,NA,S12000021,NA,S02002129,NA,S01011329,NA,yes,NA,18_greenock_road,largs,220335,659862
7,a114h,warrix_avenue_mental_health_community_rehabilitation_unit,ka12_0dp,"warrix_avenue,_irvine",S08000015,S37000020,NA,S12000021,NA,S02002109,NA,S01011229,NA,yes,NA,warrix_avenue,irvine,232545,638575
8,a201h,ailsa_hospital,ka6_6ab,"dalmellington_road,_ayr",S08000015,S37000027,NA,S12000028,NA,S02002333,NA,S01012444,NA,NA,NA,dalmellington_road,ayr,236032,618646
9,a202e,maybole_day_hospital,ka19_7by,"6_high_street,_maybole",S08000015,S37000027,NA,S12000028,NA,S02002332,NA,S01012439,NA,yes,NA,6_high_street,maybole,230096,610018
10,a208h,biggart_hospital,ka9_2hq,"biggart_road,_prestwick",S08000015,S37000027,NA,S12000028,NA,S02002347,NA,S01012529,NA,NA,NA,biggart_road,prestwick,235532,625171
11,a210h,university_hospital_ayr,ka6_6dx,"dalmellington_road,_ayr",S08000015,S37000027,NA,S12000028,NA,S02002333,NA,S01012444,NA,NA,NA,dalmellington_road,ayr,235861,618224
12,a211h,arrol_park_resource_centre,ka7_4dw,"10_doonfoot_road,_ayr",S08000015,S37000027,NA,S12000028,NA,S02002335,NA,S01012451,NA,NA,NA,10_doonfoot_road,ayr,233146,620423
13,a214h,three_towns_resource_centre,ka21_5rf,"nelson_road,_saltcoats",S08000015,S37000020,NA,S12000021,NA,S02002111,NA,S01011237,NA,NA,NA,nelson_road,saltcoats,225677,641933
14,a215h,east_ayrshire_community_hospital,ka18_1ef,"ayr_road,_cumnock",S08000015,S37000008,NA,S12000008,NA,S02001484,NA,S01007918,NA,NA,NA,ayr_road,cumnock,256352,619976
15,a216h,girvan_community_hospital,ka26_9hq,"bridgemill,_girvan,_ayrshire",S08000015,S37000027,NA,S12000028,NA,S02002331,NA,S01012433,NA,NA,bridgemill,girvan,ayrshire,219127,598598
16,a217h,woodland_view,ka12_8ss,"ayrshire_central_hospital,_kilwinning_road,_irvine",S08000015,S37000020,NA,S12000021,NA,S02002105,NA,S01011213,NA,yes,ayrshire_central_hospital,kilwinning_road,irvine,231641,641194
17,b103h,the_knoll_hospital,td11_3el,"station_road,_duns",S08000016,S37000025,NA,S12000026,NA,S02002304,NA,S01012305,NA,yes,NA,station_road,duns,378679,653306
18,b104h,galavale_house,td1_3eb,"tweed_road,_galashiels",S08000016,S37000025,NA,S12000026,NA,S02002299,NA,S01012282,NA,yes,NA,tweed_road,galashiels,350378,635136
19,b105h,hawick_community_hospital,td9_7ah,"victoria_road,_hawick",S08000016,S37000025,NA,S12000026,NA,S02002319,NA,S01012372,NA,NA,NA,victoria_road,hawick,349809,614689
20,b108h,andrew_lang_unit,td7_4lh,"viewfield_house,_selkirk",S08000016,S37000025,NA,S12000026,NA,S02002321,NA,S01012384,NA,yes,NA,viewfield_house,selkirk,347045,628835
21,b114h,kelso_hospital,td5_7jp,"inch_road,_kelso",S08000016,S37000025,NA,S12000026,NA,S02002310,NA,S01012337,NA,yes,NA,inch_road,kelso,372790,634491
22,b118h,hay_lodge_hospital,eh45_8jg,"neidpath_road,_peebles",S08000016,S37000025,NA,S12000026,NA,S02002293,NA,S01012253,NA,yes,NA,neidpath_road,peebles,324699,640483
23,b120h,borders_general_hospital,td6_9bs,melrose,S08000016,S37000025,NA,S12000026,NA,S02002320,NA,S01012377,NA,NA,NA,melrose,NA,353342,633789
24,b121h,hawick_psychiatric_day_hospital,td9_7ah,"c/o_hawick_community_hospital,_victoria_road,_hawick",S08000016,S37000025,NA,S12000026,NA,S02002319,NA,S01012372,NA,yes,c/o_hawick_community_hospital,victoria_road,hawick,349980,614713
25,b122h,hawick_psychogeriatric_day_hospital,td9_0bg,"west_port,_drumlanrig_square,_hawick",S08000016,S37000025,NA,S12000026,NA,S02002318,NA,S01012370,NA,yes,west_port,drumlanrig_square,hawick,350068,614234
26,b123h,peebles_psychogeriatric_day_hospital,eh45_8bd,"firholm,_innerleithen_road,_peebles",S08000016,S37000025,NA,S12000026,NA,S02002293,NA,S01012255,NA,yes,firholm,innerleithen_road,peebles,325669,640412
27,b124h,galashiels_psychogeriatric_day_hospital,td1_1st,"sime_place,_galashiels",S08000016,S37000025,NA,S12000026,NA,S02002297,NA,S01012275,NA,yes,NA,sime_place,galashiels,349132,636322
28,b127h,eyemouth_day_hospital,td14_5da,"houndlaw_park,_eyemouth",S08000016,S37000025,NA,S12000026,NA,S02002306,NA,S01012316,NA,NA,NA,houndlaw_park,eyemouth,394406,664226
29,b128h,crumhaugh_house,td9_0ba,"crumhaugh_road,_hawick",S08000016,S37000025,NA,S12000026,NA,S02002318,NA,S01012371,NA,yes,NA,crumhaugh_road,hawick,349595,614190
30,b129h,melburn_lodge,td6_9bs,"borders_general_hospital,_melrose",S08000016,S37000025,NA,S12000026,NA,S02002320,NA,S01012377,NA,yes,NA,borders_general_hospital,melrose,353341,633790
31,b130h,huntlyburn_house,td6_9bd,"the_cottages,_huntlyburn,_melrose",S08000016,S37000025,NA,S12000026,NA,S02002320,NA,S01012377,NA,yes,the_cottages,huntlyburn,melrose,352960,633584
32,y101h,castle_douglas_community_hospital,dg7_1ee,"academy_street,_castle_douglas",S08000017,S37000006,NA,S12000006,NA,S02001415,NA,S01007536,NA,NA,NA,academy_street,castle_douglas,276781,562189
33,y103h,crichton_royal_hospital,dg1_4tg,"glencaple_road,_dumfries",S08000017,S37000006,NA,S12000006,NA,S02001427,NA,S01007599,NA,NA,NA,glencaple_road,dumfries,297955,574768
34,y105h,nithbank_hospital,dg1_2sa,"nithbank,_dumfries",S08000017,S37000006,NA,S12000006,NA,S02001427,NA,S01007600,NA,NA,NA,nithbank,dumfries,297736,575392
35,y106h,kirkcudbright_cottage_hospital,dg6_4be,"townend,_kirkcudbright",S08000017,S37000006,NA,S12000006,NA,S02001414,NA,S01007527,NA,NA,NA,townend,kirkcudbright,268392,550781
36,y107h,thomas_hope_hospital,dg13_0jx,langholm,S08000017,S37000006,NA,S12000006,NA,S02001438,NA,S01007647,NA,NA,NA,langholm,NA,336386,584490
37,y108h,lochmaben_hospital,dg11_1rq,"lochmaben,_lockerbie",S08000017,S37000006,NA,S12000006,NA,S02001435,NA,S01007632,NA,NA,NA,lochmaben,lockerbie,307357,582534
38,y109h,moffat_community_hospital,dg10_9jy,"holmend,_moffat",S08000017,S37000006,NA,S12000006,NA,S02001437,NA,S01007644,NA,NA,NA,holmend,moffat,309357,605079
39,y110h,newton_stewart_hospital,dg8_6lz,newton_stewart,S08000017,S37000006,NA,S12000006,NA,S02001412,NA,S01007513,NA,NA,NA,newton_stewart,NA,240517,564668
40,y114h,thornhill_hospital,dg3_5aa,thornhill,S08000017,S37000006,NA,S12000006,NA,S02001420,NA,S01007561,NA,NA,NA,thornhill,NA,287762,594922
41,y120h,annan_hospital,dg12_6nq,"stapleton_road,_annan",S08000017,S37000006,NA,S12000006,NA,S02001442,NA,S01007671,NA,NA,NA,stapleton_road,annan,320309,566669
42,y124h,cromarty,dg9_7jl,"sun_street,_stranraer",S08000017,S37000006,NA,S12000006,NA,S02001406,NA,S01007487,NA,yes,NA,sun_street,stranraer,205786,560758
43,y126h,acorn_house,dg1_4sr,"kingholm_road,_dumfries",S08000017,S37000006,NA,S12000006,NA,S02001427,NA,S01007600,NA,yes,NA,kingholm_road,dumfries,297509,574425
44,y129h,wellgreen_cottages,dg1_4td,"glencaple_road,_dumfries",S08000017,S37000006,NA,S12000006,NA,S02001427,NA,S01007599,NA,yes,NA,glencaple_road,dumfries,297904,573947
45,y130h,innistaigh,dg9_7eh,"dalrymple_street,_stranraer",S08000017,S37000006,NA,S12000006,NA,S02001407,NA,S01007492,NA,NA,NA,dalrymple_street,stranraer,206302,560178
46,y132h,cardoness,dg1_4tg,"bankend_road,_dumfries",S08000017,S37000006,NA,S12000006,NA,S02001427,NA,S01007599,NA,yes,NA,bankend_road,dumfries,298102,574397
47,y134h,treastaigh,dg12_6jp,"stapleton_road,_annan",S08000017,S37000006,NA,S12000006,NA,S02001442,NA,S01007671,NA,NA,NA,stapleton_road,annan,320313,566640
48,y135h,nithview_day_hospital,dg1_2sd,"nithbank,_dumfries",S08000017,S37000006,NA,S12000006,NA,S02001427,NA,S01007600,NA,yes,NA,nithbank,dumfries,297748,575442
49,y136h,laurel_bank_(cetu),dg1_2sa,"nithbank,_dumfries",S08000017,S37000006,NA,S12000006,NA,S02001427,NA,S01007600,NA,NA,NA,nithbank,dumfries,297477,573581
50,y138h,heather_lodge_(cetu),dg1_2sa,"nithbank,_dumfries",S08000017,S37000006,NA,S12000006,NA,S02001427,NA,S01007600,NA,yes,NA,nithbank,dumfries,297735,575393
51,y142h,lismore,dg12_5hj,"41a_prestonfield_road,_annan",S08000017,S37000006,NA,S12000006,NA,S02001442,NA,S01007666,NA,yes,NA,41a_prestonfield_road,annan,319969,567398
52,y144h,galloway_community_hospital,dg9_7dq,"dalrymple_street,_stranraer",S08000017,S37000006,NA,S12000006,NA,S02001407,NA,S01007492,NA,NA,NA,dalrymple_street,stranraer,206341,560236
53,y145h,midpark_hospital,dg1_4tn,"bankend_road,_dumfries",S08000017,S37000006,NA,S12000006,NA,S02001427,NA,S01007598,NA,NA,NA,bankend_road,dumfries,298632,574281
54,y146h,dumfries_&_galloway_royal_infirmary,dg2_8rx,"cargenbridge,_dumfries",S08000017,S37000006,NA,S12000006,NA,S02001426,NA,S01007594,NA,yes,NA,cargenbridge,dumfries,294130,575081
55,f701h,cameron_hospital,ky8_5rr,"cameron_bridge,_windygates,_fife",S08000029,S37000032,NA,S12000047,NA,S02001812,NA,S01009616,NA,NA,cameron_bridge,windygates,fife,334435,699815
56,f704h,victoria_hospital,ky2_5ah,"hayfield_road,_kirkcaldy",S08000029,S37000032,NA,S12000047,NA,S02001793,NA,S01009522,NA,NA,NA,hayfield_road,kirkcaldy,327977,693093
57,f705h,victoria_maternity_unit,ky2_5ah,"hayfield_road,_kirkcaldy",S08000029,S37000032,NA,S12000047,NA,S02001793,NA,S01009522,NA,NA,NA,hayfield_road,kirkcaldy,327346,692288
58,f708h,adamson_hospital,ky15_4jg,"bank_street,_cupar",S08000029,S37000032,NA,S12000047,NA,S02001827,NA,S01009687,NA,NA,NA,bank_street,cupar,337144,715124
59,f709h,st_andrews_community_hospital,ky16_8ar,"largo_road,_st_andrews",S08000029,S37000032,NA,S12000047,NA,S02001836,NA,S01009730,NA,NA,NA,largo_road,st_andrews,350283,715321
60,f710h,randolph_wemyss_memorial_hospital,ky8_1hu,"wellesley_road,_buckhaven",S08000029,S37000032,NA,S12000047,NA,S02001813,NA,S01009619,NA,NA,NA,wellesley_road,buckhaven,336326,698751
61,f711h,whytemans_brae_hospital,ky1_2nd,"whytemans_brae,_kirkcaldy",S08000029,S37000032,NA,S12000047,NA,S02001793,NA,S01009522,NA,NA,NA,whytemans_brae,kirkcaldy,327969.72,693363.35
62,f712h,stratheden_hospital,ky15_5rr,"stratheden,_by_springfield,_cupar",S08000029,S37000032,NA,S12000047,NA,S02001826,NA,S01009681,NA,NA,stratheden,by_springfield,cupar,334867,712942
63,f714h,weston_day_hospital,ky15_4an,"west_port,_cupar",S08000029,S37000032,NA,S12000047,NA,S02001827,NA,S01009689,NA,NA,NA,west_port,cupar,337025,714474
64,f716h,glenrothes_hospital,ky7_5tg,"lodge_rise,_glenrothes,_fife",S08000029,S37000032,NA,S12000047,NA,S02001807,NA,S01009590,NA,NA,lodge_rise,glenrothes,fife,326739,702017
65,f805h,queen_margaret_hospital,ky12_0su,"whitefield_road,_dunfermline",S08000029,S37000032,NA,S12000047,NA,S02001750,NA,S01009326,NA,NA,NA,whitefield_road,dunfermline,311292,688640
66,f810h,lynebank_hospital,ky11_8jh,"halbeath_road,_dunfermline",S08000029,S37000032,NA,S12000047,NA,S02001768,NA,S01009404,NA,NA,NA,halbeath_road,dunfermline,312101,688124
67,v102h,falkirk_community_hospital,fk1_5qe,"majors_loan,_falkirk",S08000019,S37000013,NA,S12000014,NA,S02001716,NA,S01009155,NA,NA,NA,majors_loan,falkirk,288174,679767
68,v105h,bo'ness_hospital,eh51_0dh,"dean_road,_bo'ness",S08000019,S37000013,NA,S12000014,NA,S02001736,NA,S01009257,NA,NA,NA,dean_road,bo'ness,299452,681026
69,v106h,bellsdyke_hospital,fk5_4sf,"bellsdyke_road,_larbert",S08000019,S37000013,NA,S12000014,NA,S02001703,NA,S01009090,NA,NA,NA,bellsdyke_road,larbert,286719,683947
70,v201h,stirling_community_hospital,fk8_2au,"livilands_gate,_stirling",S08000019,S37000005,NA,S12000030,NA,S02002447,NA,S01013060,NA,yes,NA,livilands_gate,stirling,279698,692139
71,v214h,lochview_hospital,fk5_4se,"stirling_road,_larbert",S08000019,S37000013,NA,S12000014,NA,S02001703,NA,S01009088,NA,yes,NA,stirling_road,larbert,285061,683211
72,v215h,bungalows/red_lodge,fk5_4ae,"stirling_road,_larbert,_stirlingshire",S08000019,S37000013,NA,S12000014,NA,S02001704,NA,S01009095,NA,yes,stirling_road,larbert,stirlingshire,285487,682328
73,v216h,clackmannanshire_community_healthcare_centre,fk10_3jq,"hall_park_road,_sauchie",S08000019,S37000005,NA,S12000005,NA,S02001401,NA,S01007460,NA,NA,NA,hall_park_road,sauchie,289224,693873
74,v217h,forth_valley_royal_hospital,fk5_4wr,"stirling_road,_larbert",S08000019,S37000013,NA,S12000014,NA,S02001703,NA,S01009088,NA,NA,NA,stirling_road,larbert,284921,682898
75,n101h,aberdeen_royal_infirmary,ab25_2zn,"foresterhill_road,_aberdeen",S08000020,S37000001,NA,S12000033,NA,S02001245,NA,S01006563,NA,NA,NA,foresterhill_road,aberdeen,391789,807053
76,n102h,woodend_general_hospital,ab15_6xs,aberdeen,S08000020,S37000001,NA,S12000033,NA,S02001244,NA,S01006555,NA,NA,NA,aberdeen,NA,389717,806282
77,n103h,city_hospital,ab24_5au,"urquhart_road,_aberdeen",S08000020,S37000001,NA,S12000033,NA,S02001260,NA,S01006641,NA,NA,NA,urquhart_road,aberdeen,394733.93,806974.64
78,n104h,woolmanhill_hospital,ab25_1ld,"skene_street,_aberdeen",S08000020,S37000001,NA,S12000033,NA,S02001261,NA,S01006648,NA,NA,NA,skene_street,aberdeen,393710,806470
79,n106h,the_baird_family_hospital,ab25_2zl,"foresterhill_health_campus,_foresterhill_road,_aberdeen",S08000020,S37000001,NA,S12000033,NA,S02001245,NA,S01006563,NA,yes,foresterhill_health_campus,foresterhill_road,aberdeen,392108,807163
80,n111h,hyperbaric_centre,ab16_5fa,"123_ashgrove_road_west,_aberdeen",S08000020,S37000001,NA,S12000033,NA,S02001269,NA,S01006694,NA,yes,NA,123_ashgrove_road_west,aberdeen,391437,807157
81,n121h,royal_aberdeen_children's_hospital,ab25_2zg,"westburn_drive,_aberdeen",S08000020,S37000001,NA,S12000033,NA,S02001245,NA,S01006563,NA,NA,NA,westburn_drive,aberdeen,391919,806977
82,n151h,aboyne_hospital,ab34_5hq,"bellwood_road,_aboyne",S08000020,S37000002,NA,S12000034,NA,S02001286,NA,S01006799,NA,NA,NA,bellwood_road,aboyne,353599.9,798620.3
83,n161h,aberdeen_maternity_hospital,ab25_2zl,"foresterhill,_aberdeen",S08000020,S37000001,NA,S12000033,NA,S02001245,NA,S01006563,NA,NA,NA,foresterhill,aberdeen,392109,807162
84,n181h,glen_o'dee_hospital,ab31_5sa,banchory,S08000020,S37000002,NA,S12000034,NA,S02001299,NA,S01006872,NA,NA,NA,banchory,NA,368475,796578
85,n183h,roxburghe_house,ab25_2zh,"cornhill_site,_ashgrove_road,_aberdeen",S08000020,S37000001,NA,S12000033,NA,S02001262,NA,S01006655,NA,NA,cornhill_site,ashgrove_road,aberdeen,392478,807358
86,n184h,maidencraig_house,ab15_6xs,"woodend_hospital,_eday_road",S08000020,S37000001,NA,S12000033,NA,S02001244,NA,S01006555,NA,yes,NA,woodend_hospital,eday_road,389716,806283
87,n198h,royal_cornhill_hospital,ab25_2zh,"cornhill_road,_aberdeen",S08000020,S37000001,NA,S12000033,NA,S02001262,NA,S01006655,NA,NA,NA,cornhill_road,aberdeen,392911,807188
88,n331h,inverurie_hospital,ab51_3ul,"upperboat_road,_inverurie",S08000020,S37000002,NA,S12000034,NA,S02001304,NA,S01006905,NA,NA,NA,upperboat_road,inverurie,377208.2,820724.1
89,n332h,insch_&_district_war_memorial_hosp.,ab52_6jj,"rannes_street,_insch",S08000020,S37000002,NA,S12000034,NA,S02001319,NA,S01007001,NA,NA,NA,rannes_street,insch,363140.5,827937.2
90,n333h,peterhead_community_hospital,ab42_2xb,"links_terrace,_peterhead",S08000020,S37000002,NA,S12000034,NA,S02001335,NA,S01007080,NA,NA,NA,links_terrace,peterhead,412467,845814
91,n334h,fraserburgh_hospital,ab43_9nf,"lochpots_road,_fraserburgh",S08000020,S37000002,NA,S12000034,NA,S02001342,NA,S01007123,NA,NA,NA,lochpots_road,fraserburgh,398932,866421
92,n335h,jubilee_hospital,ab54_8ex,"bleachfield_street,_huntly",S08000020,S37000002,NA,S12000034,NA,S02001321,NA,S01007010,NA,NA,NA,bleachfield_street,huntly,352657.9,839486.1
93,n336h,turriff_cottage_hospital,ab53_4dq,"balmellie_road,_turriff",S08000020,S37000002,NA,S12000034,NA,S02001323,NA,S01007022,NA,NA,NA,balmellie_road,turriff,373102.8,849752.7
94,n337h,chalmers_hospital,ab45_1ja,banff,S08000020,S37000002,NA,S12000034,NA,S02001326,NA,S01007032,NA,NA,NA,banff,NA,368817.4,864465.9
95,n352h,ugie_hospital,ab42_1lz,"ugie_road,_peterhead",S08000020,S37000002,NA,S12000034,NA,S02001337,NA,S01007094,NA,NA,NA,ugie_road,peterhead,412414,847238
96,n401e,buckie_day_hospital,ab56_1sf,"the_bungalow,_seafield_hospital,_buckie",S08000020,S37000019,NA,S12000020,NA,S02002079,NA,S01011081,NA,yes,the_bungalow,seafield_hospital,buckie,341529,864642
97,n411h,dr_gray's_hospital,iv30_1sn,"elgin,_morayshire",S08000020,S37000019,NA,S12000020,NA,S02002087,NA,S01011118,NA,NA,NA,elgin,morayshire,320593,862526
98,n431h,seafield_hospital,ab56_1sf,"barrhill_road,_buckie",S08000020,S37000019,NA,S12000020,NA,S02002079,NA,S01011081,NA,NA,NA,barrhill_road,buckie,341530,864641
99,n432h,stephen_cottage_hospital,ab55_4bh,"stephen_avenue,_dufftown",S08000020,S37000019,NA,S12000020,NA,S02002073,NA,S01011049,NA,NA,NA,stephen_avenue,dufftown,332615,840044
100,n433h,turner_memorial_hospital,ab55_5dj,"turner_street,_keith",S08000020,S37000019,NA,S12000020,NA,S02002076,NA,S01011062,NA,NA,NA,turner_street,keith,342894.03,850604.07
101,n434h,leanchoil_hospital,iv36_2rf,"91_st_leonard's_road,_forres",S08000020,S37000019,NA,S12000020,NA,S02002096,NA,S01011167,NA,NA,NA,91_st_leonard's_road,forres,305635,857990
102,n451h,fleming_cottage_hospital,ab38_9pr,"queens_road,_aberlour",S08000020,S37000019,NA,S12000020,NA,S02002074,NA,S01011052,NA,NA,NA,queens_road,aberlour,326704,842816
103,n492h,rehabilitation_hospital,ab11_7rs,"15_polmuir_road,_aberdeen",S08000020,S37000001,NA,S12000033,NA,S02001252,NA,S01006598,NA,NA,NA,15_polmuir_road,aberdeen,393840,805021
104,n494h,kincardine_community_hospital,ab39_2nj,"kirkton_road,_stonehaven",S08000020,S37000002,NA,S12000034,NA,S02001291,NA,S01006826,NA,NA,NA,kirkton_road,stonehaven,386065.6,786460.5
105,n495h,pluscarden_clinic,iv30_1sn,"dr_gray's_hospital,_elgin",S08000020,S37000019,NA,S12000020,NA,S02002087,NA,S01011118,NA,yes,NA,dr_gray's_hospital,elgin,320890,862610
106,n496h,375_great_western_lodge,ab10_6nu,"375_great_western_road,_aberdeen",S08000020,S37000001,NA,S12000033,NA,S02001240,NA,S01006533,NA,NA,NA,375_great_western_road,aberdeen,392286,804794
107,n499h,elmwood,ab25_3bw,"ashgrove_road,_aberdeen",S08000020,S37000001,NA,S12000033,NA,S02001262,NA,S01006655,NA,NA,NA,ashgrove_road,aberdeen,392487,807420
108,n500h,aberdeen_community_health_and_care_village,ab24_5hy,"50_frederick_street,_aberdeen",S08000020,S37000001,NA,S12000033,NA,S02001259,NA,S01006639,NA,NA,NA,50_frederick_street,aberdeen,394492.23,806589.39
109,n501h,rosewell_house_(nhs_wards),ab15_6xn,"194_kings_gate,_aberdeen",S08000020,S37000001,NA,S12000033,NA,S02001244,NA,S01006553,NA,NA,NA,194_kings_gate,aberdeen,390848.14,806047.07
110,c204h,dumbarton_joint_hospital/riverview_resource_centre,g82_5ja,"cardross_road,_dumbarton",S08000031,S37000029,NA,S12000039,NA,S02002472,NA,S01013202,NA,NA,NA,cardross_road,dumbarton,238067,675883
111,c206h,vale_of_leven_general_hospital,g83_0ua,"north_main_street,_alexandria",S08000031,S37000029,NA,S12000039,NA,S02002476,NA,S01013228,NA,NA,NA,north_main_street,alexandria,238439,680824
112,c313h,inverclyde_royal_hospital,pa16_0xn,"larkfield_road,_greenock",S08000031,S37000017,NA,S12000018,NA,S02002041,NA,S01010856,NA,NA,NA,larkfield_road,greenock,224623.63,675929.12
113,c403h,dykebar_hospital,pa2_7de,"grahamston_road,_paisley",S08000031,S37000024,NA,S12000038,NA,S02002255,NA,S01012027,NA,NA,NA,grahamston_road,paisley,249800.63,661444.48
114,c418h,royal_alexandra_hospital,pa2_9pn,"corsebar_road,_paisley",S08000031,S37000024,NA,S12000038,NA,S02002270,NA,S01012107,NA,NA,NA,corsebar_road,paisley,247423,662910
115,c419h,larkfield_unit,pa16_0xn,"inverclyde_royal_hospital,_larkfield_road,_greenock",S08000031,S37000017,NA,S12000018,NA,S02002041,NA,S01010856,NA,yes,inverclyde_royal_hospital,larkfield_road,greenock,224623,675930
116,c420h,blythswood_house,pa4_8nt,"fulbar_lane,_renfrew",S08000031,S37000024,NA,S12000038,NA,S02002282,NA,S01012186,NA,NA,NA,fulbar_lane,renfrew,250679,667816
117,g106h,glasgow_dental_hospital_and_school,g2_3jz,"378_sauchiehall_street,_glasgow",S08000031,S37000034,NA,S12000049,NA,S02001933,NA,S01010267,NA,NA,NA,378_sauchiehall_street,glasgow,258322,665974
118,g107h,glasgow_royal_infirmary,g4_0sf,"84_castle_street,_glasgow",S08000031,S37000034,NA,S12000049,NA,S02001932,NA,S01010262,NA,NA,NA,84_castle_street,glasgow,260185,665688
119,g108h,the_princess_royal_maternity_unit,g31_2er,"16_alexandra_parade,_glasgow",S08000031,S37000034,NA,S12000049,NA,S02001932,NA,S01010262,NA,yes,NA,16_alexandra_parade,glasgow,260402,665817
120,g109h,lightburn_hospital,g32_6nb,"966_carntyne_road,_glasgow",S08000031,S37000034,NA,S12000049,NA,S02001914,NA,S01010159,NA,NA,NA,966_carntyne_road,glasgow,264560,665171
121,g110h,acorn_street_day_hospital,g40_4an,"21-23_acorn_street,_glasgow",S08000031,S37000034,NA,S12000049,NA,S02001892,NA,S01010043,NA,NA,NA,21-23_acorn_street,glasgow,260799,663738
122,g112h,parkview_resource_centre,g32_7ax,"152_wellshot_road,_glasgow",S08000031,S37000034,NA,S12000049,NA,S02001911,NA,S01010144,NA,NA,NA,152_wellshot_road,glasgow,264000,664020
123,g113h,auchinlea_resource_centre,g34_9hq,"auchinlea_house,_auchinlea_road,_glasgow",S08000031,S37000034,NA,S12000049,NA,S02001906,NA,S01010114,NA,NA,auchinlea_house,auchinlea_road,glasgow,266760,666274
124,g207h,stobhill_hospital,g21_3uw,"133_balornock_road,_glasgow",S08000031,S37000034,NA,S12000049,NA,S02001922,NA,S01010209,NA,NA,NA,133_balornock_road,glasgow,261277,668868
125,g212h,shawpark_resource_centre,g20_9dr,"41_shawpark_street,_glasgow",S08000031,S37000034,NA,S12000049,NA,S02001949,NA,S01010359,NA,NA,NA,41_shawpark_street,glasgow,257050,668515
126,g214h,springpark_resource_centre/day_hosp,g22_5eu,"101_denmark_street,_glasgow",S08000031,S37000034,NA,S12000049,NA,S02001924,NA,S01010224,NA,NA,NA,101_denmark_street,glasgow,259222,668186
127,g302h,leverndale_hospital,g53_7tu,"510_crookston_road,_glasgow",S08000031,S37000034,NA,S12000049,NA,S02001849,NA,S01009804,NA,NA,NA,510_crookston_road,glasgow,251890,662768
128,g303h,mearnskirk_house,g77_5rz,"newton_mearns,_glasgow",S08000031,S37000011,NA,S12000011,NA,S02001564,NA,S01008349,NA,yes,NA,newton_mearns,glasgow,253820,654434
129,g306h,new_victoria_hospital,g42_9lf,"55_grange_road,_glasgow",S08000031,S37000034,NA,S12000049,NA,S02001867,NA,S01009904,NA,yes,NA,55_grange_road,glasgow,258200,661808
130,g405h,queen_elizabeth_university_hospital,g51_4tf,"1345_govan_road,_glasgow",S08000031,S37000034,NA,S12000049,NA,S02001855,NA,S01009833,NA,NA,NA,1345_govan_road,glasgow,253769,665746
131,g408h,florence_street_mental_health_resource_centre,g5_0yx,"26_florence_street,_glasgow",S08000031,S37000034,NA,S12000049,NA,S02001889,NA,S01010025,NA,NA,NA,26_florence_street,glasgow,259441,664351
132,g410h,shawmill_resource_centre,g43_1rr,"35_well_green,_glasgow",S08000031,S37000034,NA,S12000049,NA,S02001873,NA,S01009935,NA,yes,NA,35_well_green,glasgow,256242,661639
133,g504h,gartnavel_general_hospital_(admin_purposes),g12_0yn,"1053_great_western_road,_glasgow",S08000031,S37000034,NA,S12000049,NA,S02001958,NA,S01010412,NA,yes,NA,1053_great_western_road,glasgow,255433,667983
134,g505h,gartnavel_royal_hospital,g12_0xh,"1055_great_western_road,_glasgow",S08000031,S37000034,NA,S12000049,NA,S02001958,NA,S01010412,NA,yes,NA,1055_great_western_road,glasgow,254891,667924
135,g507h,centre_for_integrative_care,g12_0yn,"1053_great_western_road,_glasgow",S08000031,S37000034,NA,S12000049,NA,S02001958,NA,S01010412,NA,NA,NA,1053_great_western_road,glasgow,256011,667834
136,g513h,royal_hospital_for_children,g51_4tf,"1345_govan_road,_glasgow",S08000031,S37000034,NA,S12000049,NA,S02001855,NA,S01009833,NA,yes,NA,1345_govan_road,glasgow,253655,665616
137,g516h,west_glasgow,g12_0yn,"1053_great_western_road,_glasgow",S08000031,S37000034,NA,S12000049,NA,S02001958,NA,S01010412,NA,NA,NA,1053_great_western_road,glasgow,255434,667982
138,g517h,beatson_west_of_scotland_cancer_centre,g12_0yn,"1053_great_western_road,_glasgow",S08000031,S37000034,NA,S12000049,NA,S02001958,NA,S01010412,NA,yes,NA,1053_great_western_road,glasgow,255433,667983
139,g596h,anvil_resource_centre,g31_5es,"81_salamanca_street,_glasgow",S08000031,S37000034,NA,S12000049,NA,S02001894,NA,S01010052,NA,NA,NA,81_salamanca_street,glasgow,262798.28,664297.14
140,g598h,arran_resource_centre,g40_2bj,"121_orr_street,_bridgeton,_glasgow",S08000031,S37000034,NA,S12000049,NA,S02001894,NA,S01010055,NA,NA,121_orr_street,bridgeton,glasgow,260720,664287
141,g599h,riverside_resource_centre,g11_6hu,"547_dumbarton_road,_glasgow",S08000031,S37000034,NA,S12000049,NA,S02001954,NA,S01010388,NA,NA,NA,547_dumbarton_road,glasgow,256437.5,666582.25
142,g600h,festival_business_park,g51_1dh,"150_brand_street,_glasgow",S08000031,S37000034,NA,S12000049,NA,S02001860,NA,S01009862,NA,NA,NA,150_brand_street,glasgow,256359,664655
143,g602h,eastwood_resource_centre,g76_7qf,"38_seres_rd,_clarkston,_glasgow",S08000031,S37000011,NA,S12000011,NA,S02001569,NA,S01008382,NA,yes,38_seres_rd,clarkston,glasgow,256703,657579
144,g603h,arndale_resource_centre,g15_7ts,"80/90_kinfauns_drive,_glasgow",S08000031,S37000034,NA,S12000049,NA,S02001976,NA,S01010499,NA,NA,NA,80/90_kinfauns_drive,glasgow,253194,670969
145,g605h,bridgeview_resource_centre,g20_9px,"the_quadrangle,_49_ruchill_street,_glasgow",S08000031,S37000034,NA,S12000049,NA,S02001941,NA,S01010319,NA,yes,the_quadrangle,49_ruchill_street,glasgow,257362,668359
146,g607h,woodlands_resource_centre,g66_2hl,"15-17_waterloo_close,_kirkintilloch",S08000031,S37000009,NA,S12000045,NA,S02001527,NA,S01008135,NA,NA,NA,15-17_waterloo_close,kirkintilloch,265957.5,674018.06
147,g608h,2-4_waterloo_close,g66_2hl,"2-4_waterloo_close,_kirkintilloch",S08000031,S37000009,NA,S12000045,NA,S02001527,NA,S01008135,NA,yes,NA,2-4_waterloo_close,kirkintilloch,265860,674033
148,g609h,the_orchards,g20_7sj,"135_panmure_street,_glasgow",S08000031,S37000034,NA,S12000049,NA,S02001940,NA,S01010314,NA,yes,NA,135_panmure_street,glasgow,258240,668030
149,g610h,pineview,g61_1qn,"switchback_road,_bearsden,_glasgow",S08000031,S37000009,NA,S12000045,NA,S02001515,NA,S01008072,NA,yes,switchback_road,bearsden,glasgow,254720,670969
150,g611h,netherton,g13_1al,"19_blackwood_street,_glasgow",S08000031,S37000034,NA,S12000049,NA,S02001971,NA,S01010472,NA,yes,NA,19_blackwood_street,glasgow,254355,669329
151,g612h,rowanbank_clinic,g21_3ul,"balornock_road,_glasgow",S08000031,S37000034,NA,S12000049,NA,S02001919,NA,S01010198,NA,yes,NA,balornock_road,glasgow,261622,668716
152,g613h,skye_house,g21_3uz,"133_balornock_road,_glasgow",S08000031,S37000034,NA,S12000049,NA,S02001922,NA,S01010209,NA,yes,NA,133_balornock_road,glasgow,261028,668876
153,g614h,orchard_view,pa16_0xn,"inverclyde_adult_and_older_peoples,_continuing_care_hospital,_larkfield_road,_greenock",S08000031,S37000017,NA,S12000018,NA,S02002041,NA,S01010856,NA,yes,NA,inverclyde_adult_and_older_peoples,continuing_care_hospital,224623,675930
154,g615h,the_mary_aitkenhead_centre,g81_1eg,"st_margaret's_hospice,_east_barns_street,_clydebank",S08000031,S37000029,NA,S12000039,NA,S02002460,NA,S01013125,NA,yes,st_margaret's_hospice,east_barns_street,clydebank,250920,669408
155,c101h,argyll_and_bute_hospital,pa31_8ld,"blarbuie_road,_lochgilphead",S08000022,S37000004,NA,S12000035,NA,S02001376,NA,S01007317,NA,NA,NA,blarbuie_road,lochgilphead,186468,687785
156,c106h,cowal_community_hospital,pa23_7rl,"360_argyll_street,_dunoon",S08000022,S37000004,NA,S12000035,NA,S02001385,NA,S01007365,NA,NA,NA,360_argyll_street,dunoon,217324,677908
157,c108h,islay_hospital,pa43_7jd,"gortonvogie_road,_bowmore,_isle_of_islay",S08000022,S37000004,NA,S12000035,NA,S02001378,NA,S01007327,NA,NA,gortonvogie_road,bowmore,isle_of_islay,131615,659676
158,c113h,victoria_hospital,pa20_9jj,"high_street,_rothesay",S08000022,S37000004,NA,S12000035,NA,S02001382,NA,S01007348,NA,NA,NA,high_street,rothesay,208723,663909
159,c114h,victoria_hospital_annexe,pa20_9jh,"townhead,_rothesay",S08000022,S37000004,NA,S12000035,NA,S02001382,NA,S01007348,NA,NA,NA,townhead,rothesay,208772,663527
160,c121h,lorn_&_islands_hospital,pa34_4hh,"glengallan_road,_oban",S08000022,S37000004,NA,S12000035,NA,S02001371,NA,S01007291,NA,NA,NA,glengallan_road,oban,185665,728549
161,c122h,campbeltown_hospital,pa28_6le,"ralston_road,_campbeltown",S08000022,S37000004,NA,S12000035,NA,S02001380,NA,S01007337,NA,NA,NA,ralston_road,campbeltown,172003,619995
162,h101h,dunbar_hospital,kw14_7xe,"thurso,_caithness",S08000022,S37000016,NA,S12000017,NA,S02002030,NA,S01010797,NA,NA,NA,thurso,caithness,310580,967264
163,h103h,caithness_general_hospital,kw1_5ns,"cliff_road,_wick",S08000022,S37000016,NA,S12000017,NA,S02002027,NA,S01010781,NA,NA,NA,cliff_road,wick,336130,950861
164,h104h,wick_town_and_county_hospital,kw1_5nq,"hospital_road,_wick,_caithness",S08000022,S37000016,NA,S12000017,NA,S02002027,NA,S01010780,NA,NA,hospital_road,wick,caithness,335965,949904
165,h106h,lawson_memorial_hospital,kw10_6ss,"station_road,_golspie",S08000022,S37000016,NA,S12000017,NA,S02002025,NA,S01010766,NA,NA,NA,station_road,golspie,282528,899920
166,h201h,rni_community_hospital,iv3_5sf,"ness_walk,_inverness",S08000022,S37000016,NA,S12000017,NA,S02002000,NA,S01010631,NA,NA,NA,ness_walk,inverness,266262,844463
167,h202h,raigmore_hospital,iv2_3uj,inverness,S08000022,S37000016,NA,S12000017,NA,S02001998,NA,S01010624,NA,NA,NA,inverness,NA,268618,844740
168,h208h,nairn_town_and_county_hospital,iv12_5ee,"cawdor_road,_nairn",S08000022,S37000016,NA,S12000017,NA,S02001986,NA,S01010556,NA,NA,NA,cawdor_road,nairn,288120,855775
169,h210h,ian_charles_community_hospital,ph26_3hr,"castle_road_east,_grantown-on-spey",S08000022,S37000016,NA,S12000017,NA,S02001984,NA,S01010546,NA,NA,NA,castle_road_east,grantown-on-spey,303534,828518
170,h211h,st_vincent's_hospital,ph21_1ex,"gynack_road,_kingussie",S08000022,S37000016,NA,S12000017,NA,S02001982,NA,S01010533,NA,NA,NA,gynack_road,kingussie,275425,801182
171,h212h,belford_hospital,ph33_6bs,"belford_road,_fort_william",S08000022,S37000016,NA,S12000017,NA,S02001980,NA,S01010522,NA,NA,NA,belford_road,fort_william,210613,774069
172,h213h,glencoe_hospital,ph49_4ht,"glencoe,_ballachulish,_argyll",S08000022,S37000016,NA,S12000017,NA,S02001981,NA,S01010525,NA,yes,glencoe,ballachulish,argyll,210346,759082
173,h214h,mackinnon_memorial_hospital,iv49_9aa,"broadford,_isle_of_skye",S08000022,S37000016,NA,S12000017,NA,S02002008,NA,S01010673,NA,NA,NA,broadford,isle_of_skye,164000,823875
174,h215h,portree_hospital,iv51_9bz,"portree,_isle_of_skye",S08000022,S37000016,NA,S12000017,NA,S02002009,NA,S01010679,NA,NA,NA,portree,isle_of_skye,148283,843314
175,h217h,ross_memorial_hospital,iv15_9qt,"ferry_road,_dingwall",S08000022,S37000016,NA,S12000017,NA,S02002017,NA,S01010716,NA,NA,NA,ferry_road,dingwall,255614,858620
176,h219h,county_community_hospital_invergordon,iv18_0jr,invergordon,S08000022,S37000016,NA,S12000017,NA,S02002021,NA,S01010744,NA,NA,NA,invergordon,NA,271838,869426
177,h221h,osprey_house,iv2_3dz,"raigmore_avenue,_inverness",S08000022,S37000016,NA,S12000017,NA,S02001998,NA,S01010624,NA,yes,NA,raigmore_avenue,inverness,268365,844797
178,h223h,new_craigs_hospital,iv3_8pj,"leachkin_road,_inverness",S08000022,S37000016,NA,S12000017,NA,S02002004,NA,S01010650,NA,NA,NA,leachkin_road,inverness,263973.4,844332.7
179,h224h,mid-argyll_community_hospital_and_integrated_care_centre,pa31_8jz,"lochgilphead,_argyll",S08000022,S37000004,NA,S12000035,NA,S02001376,NA,S01007317,NA,NA,NA,lochgilphead,argyll,187170,688509
180,h225h,dunaros_community_hospital,pa72_6jf,"salen,_isle_of_mull,_argyll",S08000022,S37000004,NA,S12000035,NA,S02001370,NA,S01007285,NA,yes,salen,isle_of_mull,argyll,157231,742923
181,h226h,migdale_hospital,iv24_3er,"cherry_grove,_bonar_bridge,_sutherland",S08000022,S37000016,NA,S12000017,NA,S02002024,NA,S01010763,NA,NA,cherry_grove,bonar_bridge,sutherland,261211.55,891509.96
182,h227h,mull_and_iona_community_hospital,pa65_6bh,"java_road,_craignure,_isle_of_mull",S08000022,S37000004,NA,S12000035,NA,S02001370,NA,S01007288,NA,yes,java_road,craignure,isle_of_mull,171280,738116
183,h228h,badenoch_and_strathspey_community_hospital,ph22_1aj,"cairnview_road,_aviemore",S08000022,S37000016,NA,S12000017,NA,S02001983,NA,S01010539,NA,NA,NA,cairnview_road,aviemore,289985.59,813433.56
184,h230h,national_treatment_centre,iv2_5na,"inverness_campus,_inverness",S08000022,S37000016,NA,S12000017,NA,S02001991,NA,S01010582,NA,NA,NA,inverness_campus,inverness,269283,845115
185,l103h,coathill_hospital,ml5_4dn,"hospital_street,_coatbridge",S08000032,S37000035,NA,S12000050,NA,S02002171,NA,S01011570,NA,NA,NA,hospital_street,coatbridge,273258,663570
186,l104h,victoria_memorial_cottage_hospital,g65_9ag,"19_glasgow_road,_kilsyth",S08000032,S37000035,NA,S12000050,NA,S02002211,NA,S01011797,NA,NA,NA,19_glasgow_road,kilsyth,270934,677913
187,l105h,wester_moffat_hospital,ml6_8lw,"towers_road,_airdrie",S08000032,S37000035,NA,S12000050,NA,S02002182,NA,S01011628,NA,NA,NA,towers_road,airdrie,278644,665669
188,l106h,university_hospital_monklands,ml6_0js,"monkscourt_avenue,_airdrie",S08000032,S37000035,NA,S12000050,NA,S02002186,NA,S01011652,NA,NA,NA,monkscourt_avenue,airdrie,274962,665442
189,l203h,cleland_hospital,ml1_5nr,"cleland,_motherwell,_lanarkshire",S08000032,S37000035,NA,S12000050,NA,S02002150,NA,S01011451,NA,NA,cleland,motherwell,lanarkshire,280549,658367
190,l204h,hartwoodhill_hospital,ml7_4la,"hartwood,_shotts",S08000032,S37000035,NA,S12000050,NA,S02002146,NA,S01011429,NA,yes,NA,hartwood,shotts,284273,658958
191,l206h,kello_hospital,ml12_6af,"johns_loan,_biggar",S08000032,S37000028,NA,S12000029,NA,S02002355,NA,S01012576,NA,NA,NA,johns_loan,biggar,304351,637599
192,l207h,lady_home_cottage_hospital,ml11_0rh,"douglas,_lanark",S08000032,S37000028,NA,S12000029,NA,S02002368,NA,S01012638,NA,NA,NA,douglas,lanark,284094,630932
193,l209h,lockhart_hospital,ml11_7rx,"whitelees_road,_lanark",S08000032,S37000028,NA,S12000029,NA,S02002366,NA,S01012628,NA,NA,NA,whitelees_road,lanark,289409,643247
194,l211h,roadmeetings_hospital,ml8_4ps,"roadmeetings,_carluke",S08000032,S37000028,NA,S12000029,NA,S02002363,NA,S01012617,NA,yes,NA,roadmeetings,carluke,286252,649954
195,l213h,strathclyde_hospital,ml1_3bw,"crawford_street,_motherwell",S08000032,S37000035,NA,S12000050,NA,S02002156,NA,S01011478,NA,yes,NA,crawford_street,motherwell,274539,656388
196,l216h,kirklands_hospital,g71_8bb,"fallside_road,_bothwell",S08000032,S37000028,NA,S12000029,NA,S02002400,NA,S01012806,NA,NA,NA,fallside_road,bothwell,270699,659552
197,l218h,airbles_road_centre,ml1_2tj,"airbles_road,_motherwell",S08000032,S37000035,NA,S12000050,NA,S02002138,NA,S01011380,NA,NA,NA,airbles_road,motherwell,275714,656143
198,l302h,university_hospital_hairmyres,g75_8rg,"eaglesham_road,_east_kilbride",S08000032,S37000028,NA,S12000029,NA,S02002427,NA,S01012955,NA,NA,NA,eaglesham_road,east_kilbride,260668,654078
199,l304h,stonehouse_hospital,ml9_3nt,"strathaven_road,_stonehouse",S08000032,S37000028,NA,S12000029,NA,S02002376,NA,S01012678,NA,NA,NA,strathaven_road,stonehouse,274892,646122
200,l305h,udston_hospital,ml3_9la,"farm_road,_hamilton",S08000032,S37000028,NA,S12000029,NA,S02002395,NA,S01012774,NA,NA,NA,farm_road,hamilton,269573,655744
201,l306h,coathill_house,ml5_5ea,"3_old_monkland_road,_coatbridge",S08000032,S37000035,NA,S12000050,NA,S02002171,NA,S01011569,NA,NA,NA,3_old_monkland_road,coatbridge,272763,663577
202,l307h,beckford_lodge,ml3_0az,"caird_street,_hamilton",S08000032,S37000028,NA,S12000029,NA,S02002398,NA,S01012794,NA,NA,NA,caird_street,hamilton,271358,656250
203,l308h,university_hospital_wishaw,ml2_0dp,"50_netherton_street,_wishaw",S08000032,S37000035,NA,S12000050,NA,S02002139,NA,S01011387,NA,NA,NA,50_netherton_street,wishaw,278294,655081
204,l395e,red_deer_centre/day_hospital,g75_8nh,"alberta_avenue,_westwood,_east_kilbride",S08000032,S37000028,NA,S12000029,NA,S02002433,NA,S01012987,NA,NA,alberta_avenue,westwood,east_kilbride,262227,653812
205,S102H,belhaven_hospital,eh42_1tr,"hospital_road,_dunbar",S08000024,S37000010,NA,S12000010,NA,S02001554,NA,S01008286,NA,NA,NA,hospital_road,dunbar,366560,678231
206,S103H,corstorphine_hospital,eh12_6tt,"136_corstorphine_road,_edinburgh",S08000024,S37000012,NA,S12000036,NA,S02001679,NA,S01008973,NA,NA,NA,136_corstorphine_road,edinburgh,320690,672942
207,S107H,edenhall_hospital,eh21_7tz,"edenhall_road,_musselburgh",S08000024,S37000010,NA,S12000010,NA,S02001538,NA,S01008190,NA,NA,NA,edenhall_road,musselburgh,335375,672016
208,S108H,edington_cottage_hospital,eh39_4pu,"54_st_baldred's_road,_north_berwick",S08000024,S37000010,NA,S12000010,NA,S02001552,NA,S01008273,NA,NA,NA,54_st_baldred's_road,north_berwick,355361,684972
209,S109H,herdmanflat_hospital,eh41_3bu,"aberlady_road,_haddington",S08000024,S37000010,NA,S12000010,NA,S02001548,NA,S01008253,NA,NA,NA,aberlady_road,haddington,350897,674417
210,S114H,royal_victoria_hospital,eh4_2dn,"13_craigleith_road,_edinburgh",S08000024,S37000012,NA,S12000036,NA,S02001663,NA,S01008887,NA,NA,NA,13_craigleith_road,edinburgh,323113,674643
211,S116H,western_general_hospital,eh4_2xu,"crewe_road_south,_edinburgh",S08000024,S37000012,NA,S12000036,NA,S02001663,NA,S01008890,NA,NA,NA,crewe_road_south,edinburgh,323004,674999
212,S201H,astley_ainslie_hospital,eh9_2hl,"grange_loan,_edinburgh",S08000024,S37000012,NA,S12000036,NA,S02001615,NA,S01008624,NA,NA,NA,grange_loan,edinburgh,325280,671364
213,S203H,chalmers_hospital,eh3_9hq,"55_lauriston_place,_edinburgh",S08000024,S37000012,NA,S12000036,NA,S02001621,NA,S01008667,NA,NA,NA,55_lauriston_place,edinburgh,325251,673042
214,S206H,edinburgh_dental_institute,eh3_9ha,"4th_floor,_lauriston_building,_lauriston_place,_edinburgh",S08000024,S37000012,NA,S12000036,NA,S02001621,NA,S01008667,NA,yes,NA,4th_floor,lauriston_building,325251,672987
215,S209H,liberton_hospital,eh16_6ub,"lasswade_road,_edinburgh",S08000024,S37000012,NA,S12000036,NA,S02001606,NA,S01008575,NA,NA,NA,lasswade_road,edinburgh,327952,669029
216,S217H,royal_edinburgh_hospital,eh10_5hf,"23_tipperlinn_road,_edinburgh",S08000024,S37000012,NA,S12000036,NA,S02001616,NA,S01008632,NA,NA,NA,23_tipperlinn_road,edinburgh,324125,671126
217,S232H,cambridge_street_day_centre,eh1_2dy,"5/7_cambridge_street,_edinburgh",S08000024,S37000012,NA,S12000036,NA,S02001620,NA,S01008660,NA,NA,NA,5/7_cambridge_street,edinburgh,324822,673413
218,S234H,william_fraser_centre,eh10_5hf,"tipperlinn_road,_edinburgh",S08000024,S37000012,NA,S12000036,NA,S02001616,NA,S01008632,NA,yes,NA,tipperlinn_road,edinburgh,324124,671127
219,S235H,the_islay_centre,eh10_5hf,"tipperlinn_road,_edinburgh",S08000024,S37000012,NA,S12000036,NA,S02001616,NA,S01008632,NA,yes,NA,tipperlinn_road,edinburgh,324124,671127
220,S240H,glencorse_day_centre,eh26_0qz,"milton_mill,_milton_bridge,_penicuik",S08000024,S37000018,NA,S12000019,NA,S02002056,NA,S01010956,NA,yes,milton_mill,milton_bridge,penicuik,325521,662255
221,S241H,bonnyrigg_day_centre,eh22_4rt,"old_library,_bonnyrigg",S08000024,S37000018,NA,S12000019,NA,S02002070,NA,S01011032,NA,yes,NA,old_library,bonnyrigg,333603,664899
222,S243H,ballenden_house,eh8_9hl,"28/32_howden_street,_edinburgh",S08000024,S37000012,NA,S12000036,NA,S02001623,NA,S01008681,NA,NA,NA,28/32_howden_street,edinburgh,326256,673008
223,S305H,st_michael's_hospital,eh49_6qs,"edinburgh_road,_linlithgow",S08000024,S37000030,NA,S12000040,NA,S02002507,NA,S01013441,NA,NA,NA,edinburgh_road,linlithgow,301041,676913
224,S306H,tippethill_hospital,eh48_3bq,"bathgate,_west_lothian",S08000024,S37000030,NA,S12000040,NA,S02002499,NA,S01013380,NA,NA,NA,bathgate,west_lothian,294512,666131
225,S307H,whitburn_day_hospital,eh47_0sd,"1_weavers_lane,_whitburn",S08000024,S37000030,NA,S12000040,NA,S02002498,NA,S01013376,NA,yes,NA,1_weavers_lane,whitburn,294398,665053
226,S308H,st_john's_hospital,eh54_6pp,"howden_west,_livingston,_west_lothian",S08000024,S37000030,NA,S12000040,NA,S02002488,NA,S01013309,NA,NA,howden_west,livingston,west_lothian,305077,667692
227,S309H,inchkeith_house,eh6_8np,"137_leith_walk,_edinburgh",S08000024,S37000012,NA,S12000036,NA,S02001644,NA,S01008796,NA,NA,NA,137_leith_walk,edinburgh,326855,675636
228,S310H,ferryfield_house,eh5_2hf,"100_pilton_drive,_edinburgh",S08000024,S37000012,NA,S12000036,NA,S02001667,NA,S01008911,NA,yes,NA,100_pilton_drive,edinburgh,323303,676130
229,S311H,bathgate_house_day_hospital,eh48_4pj,"15_north_bridge_street,_bathgate",S08000024,S37000030,NA,S12000040,NA,S02002504,NA,S01013414,NA,NA,NA,15_north_bridge_street,bathgate,297352,668862
230,S312H,learning_disabilities_service_healthcare_houses,eh10_5ez,lothian,S08000024,S37000012,NA,S12000036,NA,S02001616,NA,S01008632,NA,yes,NA,lothian,NA,324295,671309
231,S313H,ellen's_glen_house,eh16_6ff,"72_carnbee_avenue,_edinburgh",S08000024,S37000012,NA,S12000036,NA,S02001606,NA,S01008574,NA,yes,NA,72_carnbee_avenue,edinburgh,328227,669094
232,S314H,royal_infirmary_of_edinburgh_at_little_france,eh16_4sa,"51_little_france_crescent,_old_dalkeith_road,_edinburgh",S08000024,S37000012,NA,S12000036,NA,S02001627,NA,S01008704,NA,NA,51_little_france_crescent,old_dalkeith_road,edinburgh,327699,669148
233,S315H,findlay_house,eh6_7lg,"seafield_street,_edinburgh",S08000024,S37000012,NA,S12000036,NA,S02001640,NA,S01008768,NA,NA,NA,seafield_street,edinburgh,328660,675606
234,S316H,princess_alexandra_eye_pavilion,eh3_9ha,"45_chalmers_street,_edinburgh",S08000024,S37000012,NA,S12000036,NA,S02001621,NA,S01008667,NA,NA,NA,45_chalmers_street,edinburgh,325252,672986
235,S317H,whitburn_house,eh47_0dd,"12/14_the_avenue,_whitburn,_bathgate,_west_lothian",S08000024,S37000030,NA,S12000040,NA,S02002498,NA,S01013374,NA,NA,NA,12/14_the_avenue,whitburn,294519,664643
236,S318H,midlothian_community_hospital,eh22_3nd,"70_eskbank_road,_dalkeith,_midlothian",S08000024,S37000018,NA,S12000019,NA,S02002063,NA,S01010996,NA,yes,70_eskbank_road,dalkeith,midlothian,331897,665770
237,S319H,royal_hospital_for_children_and_young_people,eh16_4tj,"50_little_france_crescent,_edinburgh",S08000024,S37000012,NA,S12000036,NA,S02001604,NA,S01008568,NA,NA,NA,50_little_france_crescent,edinburgh,NA,NA
238,S320H,east_lothian_community_hospital,eh41_3pf,"alderson_road,_haddington",S08000024,S37000010,NA,S12000010,NA,S02001548,NA,S01008252,NA,yes,NA,alderson_road,haddington,350336,674073
239,d101h,state_hospital,ml11_8rp,carstairs,sb0802,NA,z,NA,z,NA,z,NA,z,NA,NA,carstairs,NA,296304,645949
240,d102h,golden_jubilee_national_hospital,g81_4dy,"agamemnon_street,_clydebank",sb0801,NA,z,NA,z,NA,z,NA,z,NA,NA,agamemnon_street,clydebank,248478,670809
241,r103h,the_balfour,kw15_1nz,"foreland_road,_kirkwall,_orkney",S08000025,S37000022,NA,S12000023,NA,S02002215,NA,S01011817,NA,yes,foreland_road,kirkwall,orkney,344590,1010016
242,z102h,gilbert_bain_hospital,ze1_0tb,"lerwick,_shetland",S08000026,S37000026,NA,S12000027,NA,S02002324,NA,S01012395,NA,NA,NA,lerwick,shetland,446981,1141029
243,t101h,ninewells_hospital,dd1_9sy,dundee,S08000030,S37000007,NA,S12000042,NA,S02001446,NA,S01007694,NA,NA,NA,dundee,NA,339005.12,730389.6
244,t104h,kings_cross_hospital,dd3_8ea,"clepington_road,_dundee",S08000030,S37000007,NA,S12000042,NA,S02001468,NA,S01007825,NA,NA,NA,clepington_road,dundee,339391,732165
245,t107h,royal_victoria_hospital,dd2_1sp,"jedburgh_road,_dundee",S08000030,S37000007,NA,S12000042,NA,S02001445,NA,S01007684,NA,NA,NA,jedburgh_road,dundee,337629,730504
246,t113h,dundee_dental_hospital,dd1_4hr,"2_park_place,_dundee",S08000030,S37000007,NA,S12000042,NA,S02001446,NA,S01007691,NA,NA,NA,2_park_place,dundee,339742,730011
247,t115h,strathmartine_hospital,dd3_0pg,"strathmartine,_dundee",S08000030,S37000003,NA,S12000041,NA,S02001344,NA,S01007133,NA,NA,NA,strathmartine,dundee,338323,735165
248,t116h,armitstead_child_development_centre,dd3_8ea,"kings_cross_hospital,_clepington_road,_dundee",S08000030,S37000007,NA,S12000042,NA,S02001468,NA,S01007825,NA,yes,kings_cross_hospital,clepington_road,dundee,339322,732161
249,t120h,hawkhill_day_hospital,dd1_5lb,"peddie_street,_dundee",S08000030,S37000007,NA,S12000042,NA,S02001446,NA,S01007693,NA,NA,NA,peddie_street,dundee,338960,729885
250,t121h,dundonald_centre,dd3_7py,"unit_9a_manhattan_works,_dundonald_street,_dundee",S08000030,S37000007,NA,S12000042,NA,S02001452,NA,S01007726,NA,yes,unit_9a_manhattan_works,dundonald_street,dundee,340847,731565
251,t122h,dudhope_house_(young_persons_unit),dd3_6hh,"15_dudhope_terrace,_dundee",S08000030,S37000007,NA,S12000042,NA,S02001447,NA,S01007700,NA,NA,NA,15_dudhope_terrace,dundee,339328,730688
252,t123h,royal_victoria_day_hospital,dd2_1sp,"royal_victoria_hospital,_jedburgh_road,_dundee",S08000030,S37000007,NA,S12000042,NA,S02001445,NA,S01007684,NA,yes,royal_victoria_hospital,jedburgh_road,dundee,337628,730505
253,t202h,perth_royal_infirmary,ph1_1nx,"taymount_terrace,_perth",S08000030,S37000033,NA,S12000048,NA,S02002231,NA,S01011898,NA,NA,NA,taymount_terrace,perth,310411,723623
254,t205h,st_margaret's_hospital,ph3_1jh,"western_road,_auchterarder",S08000030,S37000033,NA,S12000048,NA,S02002223,NA,S01011854,NA,NA,NA,western_road,auchterarder,293688,712587
255,t207h,aberfeldy_cottage_hospital,ph15_2dh,"old_crieff_road,_aberfeldy",S08000030,S37000033,NA,S12000048,NA,S02002253,NA,S01012015,NA,NA,NA,old_crieff_road,aberfeldy,285932,748951
256,t209h,blairgowrie_&_rattray_cottage_hospital,ph10_6ee,"perth_road,_blairgowrie",S08000030,S37000033,NA,S12000048,NA,S02002249,NA,S01011991,NA,NA,NA,perth_road,blairgowrie,317409,744585.83
257,t215h,murray_royal_hospital,ph2_7bh,"muirhall_road,_perth",S08000030,S37000033,NA,S12000048,NA,S02002240,NA,S01011945,NA,NA,NA,muirhall_road,perth,312939.65,724017.75
258,t221h,scone_day_hospital,ph2_6le,"birch_avenue,_scone",S08000030,S37000033,NA,S12000048,NA,S02002241,NA,S01011950,NA,yes,NA,birch_avenue,scone,313174,726281
259,t304h,arbroath_infirmary,dd11_2at,"rosemount_road,_arbroath",S08000030,S37000003,NA,S12000041,NA,S02001352,NA,S01007181,NA,NA,NA,rosemount_road,arbroath,363406,740444
260,t305h,brechin_infirmary,dd9_7an,"infirmary_street,_brechin",S08000030,S37000003,NA,S12000041,NA,S02001361,NA,S01007234,NA,NA,NA,infirmary_street,brechin,360207,760462
261,t309h,little_cairnie_hospital,dd11_3ra,"forfar_road,_arbroath",S08000030,S37000003,NA,S12000041,NA,S02001351,NA,S01007174,NA,NA,NA,forfar_road,arbroath,362737,741929
262,t310h,montrose_royal_infirmary,dd10_8aj,"bridge_street,_montrose",S08000030,S37000003,NA,S12000041,NA,S02001357,NA,S01007208,NA,NA,NA,bridge_street,montrose,371045,757440
263,t312h,stracathro_hospital,dd9_7qa,by_brechin,S08000030,S37000003,NA,S12000041,NA,S02001359,NA,S01007225,NA,NA,NA,by_brechin,NA,362591,764986
264,t313h,whitehills_hospital,dd8_3dy,by_forfar,S08000030,S37000003,NA,S12000041,NA,S02001364,NA,S01007252,NA,yes,NA,by_forfar,NA,346655,751499
265,t314h,gowanlea,dd11_5dx,"seaton_road,_arbroath",S08000030,S37000003,NA,S12000041,NA,S02001353,NA,S01007189,NA,NA,NA,seaton_road,arbroath,364826,741428
266,t316h,crieff_community_hospital,ph7_3hr,"king_street,_crieff",S08000030,S37000033,NA,S12000048,NA,S02002226,NA,S01011870,NA,NA,NA,king_street,crieff,286317.24,721263.23
267,t317h,carseview_centre,dd2_1nh,"4_tom_mc_donald_avenue,_medipark,_dundee",S08000030,S37000007,NA,S12000042,NA,S02001471,NA,S01007839,NA,NA,4_tom_mc_donald_avenue,medipark,dundee,335664,730633
268,t319h,whitehills_health_and_community_care_centre,dd8_3dy,by_forfar,S08000030,S37000003,NA,S12000041,NA,S02001364,NA,S01007252,NA,NA,NA,by_forfar,NA,346619,751376
269,t320h,pitlochry_community_hospital,ph16_5fg,"ferry_road,_pitlochry,_perthshire",S08000030,S37000033,NA,S12000048,NA,S02002252,NA,S01012010,NA,NA,ferry_road,pitlochry,perthshire,293727,757986
270,t321h,perth_dental_hospital,ph1_1ra,"broxden_business_park,_perth",S08000030,S37000033,NA,S12000048,NA,S02002232,NA,S01011899,NA,NA,NA,broxden_business_park,perth,308335.46,723095.85
271,t322h,kingsway_care_centre,dd2_3pt,"kings_cross_road,_dundee",S08000030,S37000007,NA,S12000042,NA,S02001468,NA,S01007826,NA,NA,NA,kings_cross_road,dundee,338477.08,732101.69
272,t323h,bluebell_intermediate_care_unit,dd2_5jb,"riverside_view_nursing_home,_60_clovis_duveau_drive,_dundee",S08000030,S37000007,NA,S12000042,NA,S02001475,NA,S01007869,NA,yes,riverside_view_nursing_home,60_clovis_duveau_drive,dundee,335404,730180
273,t324h,dudhope_young_peoples_inpatient_unit,dd3_6hh,"17_dudhope_terrace,_dundee",S08000030,S37000007,NA,S12000042,NA,S02001447,NA,S01007700,NA,yes,NA,17_dudhope_terrace,dundee,339112,730878
274,t325h,camhs_hospital_unit,dd3_6hh,"17_dudhope_terrace,_dundee",S08000030,S37000007,NA,S12000042,NA,S02001447,NA,S01007700,NA,NA,NA,17_dudhope_terrace,dundee,339389,730741
275,w106h,st_brendans_cot_hospital,hs9_5xe,"horve,_isle_of_barra",S08000028,S37000031,NA,S12000013,NA,S02001687,NA,S01009014,NA,NA,NA,horve,isle_of_barra,65926,797989
276,w107h,western_isles_hospital,hs1_2af,"macaulay_road,_stornoway,_isle_of_lewis",S08000028,S37000031,NA,S12000013,NA,S02001694,NA,S01009045,NA,NA,macaulay_road,stornoway,isle_of_lewis,142692,934195
277,w108h,uist_&_barra_hospital,hs7_5la,"balivanich,_isle_of_benbecula",S08000028,S37000031,NA,S12000013,NA,S02001688,NA,S01009020,NA,NA,NA,balivanich,isle_of_benbecula,77740,855235
